GLOBALSTAR M024         
1 25883U 99043A   24294.26839875 -.00000083  00000+0 -65739-3 0  9995
2 25883  52.0000 201.9621 0002257  58.0492 116.6379 11.10160124 88219
GLOBALSTAR M027         
1 25884U 99043B   24294.36636436 -.00000023  00000+0  15354-2 0  9995
2 25884  52.0207 272.9288 0021412 325.0968  34.8421 11.04370249114746
GLOBALSTAR M054         
1 25885U 99043C   24294.40492687 -.00000089  00000+0 -45010-3 0  9995
2 25885  52.0130  80.3760 0006758 126.4803 259.9297 11.39205256 91721
GLOBALSTAR M053         
1 25886U 99043D   24294.58117413 -.00000039  00000+0  84908-3 0  9999
2 25886  52.0024  13.7580 0003453  43.3644  94.5151 11.27659471 92411
GLOBALSTAR M058         
1 25907U 99049A   24294.55701373  .00000020  00000+0  14071-2 0  9992
2 25907  51.9971  29.0431 0002364 158.8942 201.1991 11.93186570512932
GLOBALSTAR M050         
1 25908U 99049B   24294.57364514  .00000006  00000+0  10667-2 0  9998
2 25908  52.0007  54.5741 0008351 272.8601 196.1331 12.07441558119247
GLOBALSTAR M033         
1 25909U 99049C   24294.43698433  .00000032  00000+0  11883-2 0  9994
2 25909  51.9913 303.3491 0012919 130.4998 229.6976 12.20287993506470
GLOBALSTAR M055         
1 25910U 99049D   24294.25654102 -.00000057  00000+0  32269-3 0  9991
2 25910  52.0034 326.2810 0007028 355.8905   4.1888 12.29411699138776
